{"type": "FeatureCollection", "features": [ {"type": "Feature", "properties": {"norad_id": 39155, "name": "COSMOS 2485 (747)", "group": "glo-ops", "lat": -37.89620521230892, "lon": -79.07508062416143, "alt_km": 19072.441246066795, "timestamp": "2025-12-09T14:52:26.422954+00:00", "meta": {"OBJECT_NAME": "COSMOS 2485 (747)", "OBJECT_ID": "2013-019A", "EPOCH": "2025-12-08T20:38:39.480288", "MEAN_MOTION": 2.13102846, "ECCENTRICITY": 0.00245424, "INCLINATION": 65.3114, "RA_OF_ASC_NODE": 79.9979, "ARG_OF_PERICENTER": 229.0903, "MEAN_ANOMALY": 130.7128, "EPHEMERIS_TYPE": 0, "CLASSIFICATION_TYPE": "U", "NORAD_CAT_ID": 39155, "ELEMENT_SET_NO": 999, "REV_AT_EPOCH": 9822, "BSTAR": 0, "MEAN_MOTION_DOT": -1.1e-07, "MEAN_MOTION_DDOT": 0}, "tle": {"line1": "1 39155U 13019A   25342.86017917 -.00000011  00000+0  00000+0 0  9993", "line2": "2 39155  65.3114  79.9979 0024542 229.0903 130.7128  2.13102846 98227"}}, "geometry": {"type": "Point", "coordinates": [-79.07508062416143, -37.89620521230892]}}, {"type": "Feature", "properties": {"norad_id": 39620, "name": "COSMOS 2492 (754)", "group": "glo-ops", "lat": -61.06367236486561, "lon": -163.73263246185107, "alt_km": 19116.726385261485, "timestamp": "2025-12-09T14:52:26.422966+00:00", "meta": {"OBJECT_NAME": "COSMOS 2492 (754)", "OBJECT_ID": "2014-012A", "EPOCH": "2025-12-08T08:23:17.785824", "MEAN_MOTION": 2.13103117, "ECCENTRICITY": 0.0014207, "INCLINATION": 65.4103, "RA_OF_ASC_NODE": 320.4195, "ARG_OF_PERICENTER": 311.8365, "MEAN_ANOMALY": 48.0373, "EPHEMERIS_TYPE": 0, "CLASSIFICATION_TYPE": "U", "NORAD_CAT_ID": 39620, "ELEMENT_SET_NO": 999, "REV_AT_EPOCH": 9117, "BSTAR": 0, "MEAN_MOTION_DOT": -4.9e-07, "MEAN_MOTION_DDOT": 0}, "tle": {"line1": "1 39620U 14012A   25342.34951141 -.00000049  00000+0  00000+0 0  9994", "line2": "2 39620  65.4103 320.4195 0014207 311.8365  48.0373  2.13103117 91178"}}, "geometry": {"type": "Point", "coordinates": [-163.73263246185107, -61.06367236486561]}}, {"type": "Feature", "properties": {"norad_id": 40001, "name": "COSMOS 2500 (755)", "group": "glo-ops", "lat": 50.24133185794239, "lon": 106.62838797254335, "alt_km": 19126.460838150106, "timestamp": "2025-12-09T14:52:26.422977+00:00", "meta": {"OBJECT_NAME": "COSMOS 2500 (755)", "OBJECT_ID": "2014-032A", "EPOCH": "2025-12-08T23:47:04.888320", "MEAN_MOTION": 2.13105786, "ECCENTRICITY": 0.00083334, "INCLINATION": 65.3455, "RA_OF_ASC_NODE": 320.1603, "ARG_OF_PERICENTER": 219.1705, "MEAN_ANOMALY": 140.7654, "EPHEMERIS_TYPE": 0, "CLASSIFICATION_TYPE": "U", "NORAD_CAT_ID": 40001, "ELEMENT_SET_NO": 999, "REV_AT_EPOCH": 8940, "BSTAR": 0, "MEAN_MOTION_DOT": -4.9e-07, "MEAN_MOTION_DDOT": 0}, "tle": {"line1": "1 40001U 14032A   25342.99102880 -.00000049  00000+0  00000+0 0  9990", "line2": "2 40001  65.3455 320.1603 0008333 219.1705 140.7654  2.13105786 89403"}}, "geometry": {"type": "Point", "coordinates": [106.62838797254335, 50.24133185794239]}}, {"type": "Feature", "properties": {"norad_id": 40315, "name": "COSMOS 2501 (702K)", "group": "glo-ops", "lat": -60.6703768304701, "lon": 134.8549684327682, "alt_km": 19126.175607432575, "timestamp": "2025-12-09T14:52:26.422989+00:00", "meta": {"OBJECT_NAME": "COSMOS 2501 (702K)", "OBJECT_ID": "2014-075A", "EPOCH": "2025-12-07T20:13:51.362112", "MEAN_MOTION": 2.13101338, "ECCENTRICITY": 0.00201356, "INCLINATION": 63.6139, "RA_OF_ASC_NODE": 196.9947, "ARG_OF_PERICENTER": 204.4913, "MEAN_ANOMALY": 155.4908, "EPHEMERIS_TYPE": 0, "CLASSIFICATION_TYPE": "U", "NORAD_CAT_ID": 40315, "ELEMENT_SET_NO": 999, "REV_AT_EPOCH": 8577, "BSTAR": 0, "MEAN_MOTION_DOT": 5.4e-07, "MEAN_MOTION_DDOT": 0}, "tle": {"line1": "1 40315U 14075A   25341.84295558  .00000054  00000+0  00000+0 0  9998", "line2": "2 40315  63.6139 196.9947 0020135 204.4913 155.4908  2.13101338 85773"}}, "geometry": {"type": "Point", "coordinates": [134.8549684327682, -60.6703768304701]}}, {"type": "Feature", "properties": {"norad_id": 41330, "name": "COSMOS 2514 (751)", "group": "glo-ops", "lat": -55.00436786548939, "lon": -81.96840388278467, "alt_km": 19128.060507727438, "timestamp": "2025-12-09T14:52:26.423000+00:00", "meta": {"OBJECT_NAME": "COSMOS 2514 (751)", "OBJECT_ID": "2016-008A", "EPOCH": "2025-12-09T05:37:58.825632", "MEAN_MOTION": 2.13102536, "ECCENTRICITY": 0.00122364, "INCLINATION": 65.1358, "RA_OF_ASC_NODE": 319.5239, "ARG_OF_PERICENTER": 220.0364, "MEAN_ANOMALY": 139.8696, "EPHEMERIS_TYPE": 0, "CLASSIFICATION_TYPE": "U", "NORAD_CAT_ID": 41330, "ELEMENT_SET_NO": 999, "REV_AT_EPOCH": 7657, "BSTAR": 0, "MEAN_MOTION_DOT": -4.9e-07, "MEAN_MOTION_DDOT": 0}, "tle": {"line1": "1 41330U 16008A   25343.23470863 -.00000049  00000+0  00000+0 0  9998", "line2": "2 41330  65.1358 319.5239 0012236 220.0364 139.8696  2.13102536 76574"}}, "geometry": {"type": "Point", "coordinates": [-81.96840388278467, -55.00436786548939]}}, {"type": "Feature", "properties": {"norad_id": 42939, "name": "COSMOS 2522 (752)", "group": "glo-ops", "lat": 50.653520308968545, "lon": -125.267355832072, "alt_km": 19140.102097963158, "timestamp": "2025-12-09T14:52:26.423011+00:00", "meta": {"OBJECT_NAME": "COSMOS 2522 (752)", "OBJECT_ID": "2017-055A", "EPOCH": "2025-12-08T03:13:49.063296", "MEAN_MOTION": 2.13101881, "ECCENTRICITY": 0.00064484, "INCLINATION": 64.0758, "RA_OF_ASC_NODE": 198.386, "ARG_OF_PERICENTER": 225.1717, "MEAN_ANOMALY": 134.8539, "EPHEMERIS_TYPE": 0, "CLASSIFICATION_TYPE": "U", "NORAD_CAT_ID": 42939, "ELEMENT_SET_NO": 999, "REV_AT_EPOCH": 6390, "BSTAR": 0, "MEAN_MOTION_DOT": 5.1e-07, "MEAN_MOTION_DDOT": 0}, "tle": {"line1": "1 42939U 17055A   25342.13459564  .00000051  00000+0  00000+0 0  9992", "line2": "2 42939  64.0758 198.3860 0006448 225.1717 134.8539  2.13101881 63907"}}, "geometry": {"type": "Point", "coordinates": [-125.267355832072, 50.653520308968545]}}, {"type": "Feature", "properties": {"norad_id": 43508, "name": "COSMOS 2527 (756)", "group": "glo-ops", "lat": 65.48209795987734, "lon": 168.67809878851304, "alt_km": 19139.023098254984, "timestamp": "2025-12-09T14:52:26.423023+00:00", "meta": {"OBJECT_NAME": "COSMOS 2527 (756)", "OBJECT_ID": "2018-053A", "EPOCH": "2025-12-08T13:33:02.442240", "MEAN_MOTION": 2.1310206, "ECCENTRICITY": 0.0008756, "INCLINATION": 65.4701, "RA_OF_ASC_NODE": 80.2713, "ARG_OF_PERICENTER": 225.5022, "MEAN_ANOMALY": 134.4409, "EPHEMERIS_TYPE": 0, "CLASSIFICATION_TYPE": "U", "NORAD_CAT_ID": 43508, "ELEMENT_SET_NO": 999, "REV_AT_EPOCH": 5821, "BSTAR": 0, "MEAN_MOTION_DOT": -1e-07, "MEAN_MOTION_DDOT": 0}, "tle": {"line1": "1 43508U 18053A   25342.56461160 -.00000010  00000+0  00000+0 0  9992", "line2": "2 43508  65.4701  80.2713 0008756 225.5022 134.4409  2.13102060 58216"}}, "geometry": {"type": "Point", "coordinates": [168.67809878851304, 65.48209795987734]}}, {"type": "Feature", "properties": {"norad_id": 43687, "name": "COSMOS 2529 (757)", "group": "glo-ops", "lat": 13.21731882956685, "lon": -154.50521601895863, "alt_km": 19138.121379384596, "timestamp": "2025-12-09T14:52:26.423034+00:00", "meta": {"OBJECT_NAME": "COSMOS 2529 (757)", "OBJECT_ID": "2018-086A", "EPOCH": "2025-12-09T03:09:05.996160", "MEAN_MOTION": 2.13101852, "ECCENTRICITY": 0.0007293, "INCLINATION": 64.2919, "RA_OF_ASC_NODE": 199.0104, "ARG_OF_PERICENTER": 254.2611, "MEAN_ANOMALY": 105.7325, "EPHEMERIS_TYPE": 0, "CLASSIFICATION_TYPE": "U", "NORAD_CAT_ID": 43687, "ELEMENT_SET_NO": 999, "REV_AT_EPOCH": 5523, "BSTAR": 0, "MEAN_MOTION_DOT": 4.4e-07, "MEAN_MOTION_DDOT": 0}, "tle": {"line1": "1 43687U 18086A   25343.13131940  .00000044  00000+0  00000+0 0  9996", "line2": "2 43687  64.2919 199.0104 0007293 254.2611 105.7325  2.13101852 55238"}}, "geometry": {"type": "Point", "coordinates": [-154.50521601895863, 13.21731882956685]}}, {"type": "Feature", "properties": {"norad_id": 44299, "name": "COSMOS 2534 (758)", "group": "glo-ops", "lat": 27.63775219977472, "lon": 4.439204256908479, "alt_km": 19142.812337560616, "timestamp": "2025-12-09T14:52:26.423046+00:00", "meta": {"OBJECT_NAME": "COSMOS 2534 (758)", "OBJECT_ID": "2019-030A", "EPOCH": "2025-12-09T05:29:56.087232", "MEAN_MOTION": 2.13102103, "ECCENTRICITY": 0.00090056, "INCLINATION": 64.3653, "RA_OF_ASC_NODE": 199.0114, "ARG_OF_PERICENTER": 283.3894, "MEAN_ANOMALY": 286.0531, "EPHEMERIS_TYPE": 0, "CLASSIFICATION_TYPE": "U", "NORAD_CAT_ID": 44299, "ELEMENT_SET_NO": 999, "REV_AT_EPOCH": 5087, "BSTAR": 0, "MEAN_MOTION_DOT": 4.4e-07, "MEAN_MOTION_DDOT": 0}, "tle": {"line1": "1 44299U 19030A   25343.22912138  .00000044  00000+0  00000+0 0  9992", "line2": "2 44299  64.3653 199.0114 0009005 283.3894 286.0531  2.13102103 50871"}}, "geometry": {"type": "Point", "coordinates": [4.439204256908479, 27.63775219977472]}}, {"type": "Feature", "properties": {"norad_id": 44850, "name": "COSMOS 2544 (759)", "group": "glo-ops", "lat": 42.739670621616874, "lon": -124.86344495596603, "alt_km": 19140.93325736278, "timestamp": "2025-12-09T14:52:26.423057+00:00", "meta": {"OBJECT_NAME": "COSMOS 2544 (759)", "OBJECT_ID": "2019-088A", "EPOCH": "2025-12-08T00:57:27.919872", "MEAN_MOTION": 2.13101724, "ECCENTRICITY": 0.0013638, "INCLINATION": 65.4575, "RA_OF_ASC_NODE": 80.1157, "ARG_OF_PERICENTER": 249.1317, "MEAN_ANOMALY": 110.7358, "EPHEMERIS_TYPE": 0, "CLASSIFICATION_TYPE": "U", "NORAD_CAT_ID": 44850, "ELEMENT_SET_NO": 999, "REV_AT_EPOCH": 4664, "BSTAR": 0, "MEAN_MOTION_DOT": -1e-07, "MEAN_MOTION_DDOT": 0}, "tle": {"line1": "1 44850U 19088A   25342.03990648 -.00000010  00000+0  00000+0 0  9992", "line2": "2 44850  65.4575  80.1157 0013638 249.1317 110.7358  2.13101724 46641"}}, "geometry": {"type": "Point", "coordinates": [-124.86344495596603, 42.739670621616874]}}]}